MEAN_MOTION;ECCENTRICITY;INCLINATION;RA_OF_ASC_NODE;ARG_OF_PERICENTER;MEAN_ANOMALY;BSTAR;MEAN_MOTION_DOT;MEAN_MOTION_DDOT;TYPE
12.62263495;4.23E-5;51.9946;299.6831;45.6584;56.2588;0.00014177;-7.8E-7;0;Globalstar
12.62263492;4.26E-5;51.9946;299.4117;45.8684;101.3065;0.00014146;-7.8E-7;0;Globalstar
12.62263552;4.37E-5;51.9944;296.5451;47.283;59.8772;0.00018476;-7.1E-7;0;Globalstar
12.62263554;4.41E-5;51.9944;296.0394;47.3533;94.8372;0.00018265;-7.1E-7;0;Globalstar
12.62263568;4.51E-5;51.9943;293.6557;48.7494;52.522;0.00017424;-7.3E-7;0;Globalstar
12.62263557;4.61E-5;51.9942;292.2417;48.3441;4.0975;0.00015005;-7.7E-7;0;Globalstar
12.62263557;4.63E-5;51.9942;291.5416;48.9616;328.7886;0.00014672;-7.7E-7;0;Globalstar
12.62263569;4.68E-5;51.9941;290.5407;49.8027;22.3531;0.00014674;-7.7E-7;0;Globalstar
12.62263595;4.75E-5;51.9941;288.6469;50.3533;329.409;0.0001348;-8.0E-7;0;Globalstar
12.62263575;4.74E-5;51.994;288.3929;50.9594;347.9398;0.0001085;-8.4E-7;0;Globalstar
12.62263516;4.89E-5;51.9939;285.5053;51.5264;338.9201;3.6268E-5;-9.7E-7;0;Globalstar
12.62263689;4.79E-5;51.9943;284.4681;49.5389;89.3055;0.00011118;-8.4E-7;0;Globalstar
12.62263622;5.07E-5;51.9938;281.6003;51.988;48.8678;2.7854E-5;-9.9E-7;0;Globalstar
12.62263658;5.19E-5;51.9937;278.9634;52.2649;25.82;1.5295E-5;-1.01E-6;0;Globalstar
12.62263674;5.33E-5;51.9935;275.5722;53.2357;48.147;3.5349E-6;-1.03E-6;0;Globalstar
12.62263725;5.33E-5;51.9934;272.447;55.6979;31.8417;2.7397E-5;-9.9E-7;0;Globalstar
12.62263721;5.46E-5;51.9933;269.3071;55.9172;39.6727;3.6699E-5;-9.7E-7;0;Globalstar
12.62263725;5.48E-5;51.9933;269.039;55.9322;79.9132;3.964E-5;-9.7E-7;0;Globalstar
12.6226373;5.5E-5;51.9933;266.9075;56.6179;21.6565;4.7326E-5;-9.5E-7;0;Globalstar
12.62263804;5.45E-5;51.9933;264.5343;57.7435;323.9915;0.00011005;-8.4E-7;0;Globalstar
12.62263714;5.5E-5;51.9933;264.0164;57.8136;17.1276;4.944E-5;-9.5E-7;0;Globalstar
12.62263826;5.44E-5;51.9934;262.9918;58.8126;105.9465;0.00013722;-7.9E-7;0;Globalstar
12.62263803;5.52E-5;51.9933;261.3927;58.7472;333.3465;0.0001224;-8.2E-7;0;Globalstar
12.62263738;5.65E-5;51.9934;260.8794;57.8939;20.6099;8.5829E-5;-8.8E-7;0;Globalstar
12.62263775;5.7E-5;51.9934;257.9882;58.9799;16.2278;9.4351E-5;-8.7E-7;0;Globalstar
12.62263805;5.69E-5;51.9935;257.4884;59.3108;42.1359;0.00011286;-8.4E-7;0;Globalstar
12.62263867;5.7E-5;51.9935;254.3638;60.3825;26.3792;0.00011237;-8.4E-7;0;Globalstar
12.62263862;5.71E-5;51.9935;254.1026;60.2806;56.5489;0.00010219;-8.5E-7;0;Globalstar
12.62263887;5.77E-5;51.9936;251.1886;61.0987;86.6542;6.8917E-5;-9.1E-7;0;Globalstar
12.62263898;5.75E-5;51.9936;250.9547;61.3153;75.6352;7.341E-5;-9.1E-7;0;Globalstar
12.622639;5.73E-5;51.9937;248.3448;61.9773;11.9306;2.1294E-5;-1.0E-6;0;Globalstar
12.62263894;5.72E-5;51.9937;247.8099;61.9223;90.6259;2.311E-6;-1.03E-6;0;Globalstar
12.62263868;5.72E-5;51.9937;245.4327;62.8083;39.301;-4.5004E-5;-1.12E-6;0;Globalstar
12.62263866;5.69E-5;51.9938;243.3191;63.2393;314.6846;-6.9391E-5;-1.16E-6;0;Globalstar
12.62263849;5.71E-5;51.9938;240.4262;63.8514;313.5597;-8.2313E-5;-1.19E-6;0;Globalstar
12.62268334;5.87E-5;51.9943;239.4053;69.9153;32.8301;-7.6331E-5;-1.17E-6;0;Globalstar
12.62270121;5.58E-5;51.9938;237.2917;66.4882;311.0986;-7.0307E-5;-1.16E-6;0;Globalstar
12.62270083;5.54E-5;51.9939;236.7682;68.7044;10.4717;-7.0591E-5;-1.16E-6;0;Globalstar
12.62270092;5.64E-5;51.994;233.8777;69.5306;5.6203;-6.8779E-5;-1.16E-6;0;Globalstar
12.62270104;5.71E-5;51.9939;232.872;66.9478;70.0126;-4.1137E-5;-1.11E-6;0;Globalstar
12.62270165;5.57E-5;51.9939;229.9911;67.3658;51.0822;7.6742E-5;-9.0E-7;0;Globalstar
12.62270152;5.57E-5;51.994;229.7263;67.2774;86.5667;5.5508E-5;-9.4E-7;0;Globalstar
12.62270131;5.54E-5;51.994;227.3493;67.7403;35.427;5.7893E-5;-9.3E-7;0;Globalstar
12.6227012;5.47E-5;51.9941;224.9885;68.1477;319.9288;4.9074E-5;-9.5E-7;0;Globalstar
12.62270136;5.47E-5;51.9942;221.8221;68.2076;7.7795;6.664E-5;-9.2E-7;0;Globalstar
12.62270192;5.36E-5;51.9943;218.6857;68.5047;10.764;8.3377E-5;-8.9E-7;0;Globalstar
12.62270173;5.34E-5;51.9944;215.2938;68.478;35.5867;2.9806E-5;-9.8E-7;0;Globalstar
12.622702;5.26E-5;51.9944;211.6469;68.074;81.5402;-1.2905E-5;-1.06E-6;0;Globalstar
12.62270177;5.28E-5;51.9943;208.5072;68.3067;89.4868;-5.7578E-5;-1.14E-6;0;Globalstar
12.62270163;5.19E-5;51.9942;206.3922;68.3689;7.4596;-6.7623E-5;-1.16E-6;0;Globalstar
12.62270192;5.04E-5;51.9945;203.5056;68.1272;357.8112;2.7553E-5;-9.9E-7;0;Globalstar
12.62270152;5.17E-5;51.9941;202.9689;67.8693;79.5975;-5.1167E-5;-1.13E-6;0;Globalstar
12.62270137;5.15E-5;51.994;199.5929;67.3993;81.1726;-2.3956E-5;-1.08E-6;0;Globalstar
12.62270135;5.12E-5;51.994;197.2115;67.2082;37.2202;2.3109E-5;-1.0E-6;0;Globalstar
12.62270158;5.13E-5;51.9939;193.5649;65.9247;83.4609;8.9412E-5;-8.8E-7;0;Globalstar
12.6227018;5.14E-5;51.9939;190.4238;64.8715;94.8075;0.00012494;-8.1E-7;0;Globalstar
12.62270194;5.18E-5;51.9938;187.5377;64.5091;84.6347;0.00013214;-8.0E-7;0;Globalstar
12.62270197;5.17E-5;51.9938;186.1725;64.3327;323.3942;0.00012275;-8.2E-7;0;Globalstar
12.622702;5.06E-5;51.9942;185.1559;63.7797;41.802;1.6052E-5;-1.01E-6;0;Globalstar
12.62270205;5.13E-5;51.9938;182.264;63.7357;40.1547;7.2578E-5;-9.1E-7;0;Globalstar
12.62270198;5.06E-5;51.994;179.1281;62.4761;43.6173;2.8742E-5;-9.9E-7;0;Globalstar
12.62270224;5.09E-5;51.9939;176.0032;61.8864;30.1032;4.0319E-5;-9.7E-7;0;Globalstar
12.62270224;5.09E-5;51.9939;176.0032;61.8864;30.1032;4.0319E-5;-9.7E-7;0;Globalstar
12.62270229;5.21E-5;51.9933;172.595;61.1935;80.2253;-3.6036E-5;-1.1E-6;0;Globalstar
12.62270245;5.23E-5;51.9931;169.455;60.9848;88.9924;-2.4925E-5;-1.08E-6;0;Globalstar
12.62270238;5.29E-5;51.993;166.5673;60.7746;80.9862;-3.6463E-6;-1.04E-6;0;Globalstar
12.62270231;5.28E-5;51.9929;164.9511;60.7416;334.1406;1.7178E-6;-1.03E-6;0;Globalstar
12.62270236;5.35E-5;51.9928;163.427;60.2536;90.1747;2.7545E-5;-9.9E-7;0;Globalstar
12.62270225;5.38E-5;51.9928;161.812;60.4522;341.4203;3.4602E-5;-9.8E-7;0;Globalstar
12.62270297;5.39E-5;51.9935;160.7993;59.5574;54.0272;3.4522E-5;-9.8E-7;0;Globalstar
12.62270313;5.49E-5;51.9934;157.8865;59.1082;83.6052;3.5459E-5;-9.7E-7;0;Globalstar
12.62270305;5.64E-5;51.9926;154.7715;59.1628;54.907;0.00014422;-7.8E-7;0;Globalstar
12.62270305;5.64E-5;51.9926;154.7715;59.1628;54.907;0.00014422;-7.8E-7;0;Globalstar
12.62270329;5.73E-5;51.9926;151.8916;58.9669;35.0444;0.00013634;-7.9E-7;0;Globalstar
12.62270364;5.76E-5;51.9926;149.7644;58.7482;331.3416;0.00012355;-8.2E-7;0;Globalstar
12.62270362;5.87E-5;51.9925;148.4834;58.0791;84.6491;0.00010899;-8.4E-7;0;Globalstar
12.62270367;5.91E-5;51.9925;146.5932;58.1845;26.7711;6.3065E-5;-9.2E-7;0;Globalstar
12.62270376;5.99E-5;51.9925;145.3592;57.6468;69.7209;5.6773E-5;-9.4E-7;0;Globalstar
12.6227037;6.05E-5;51.9925;143.4633;57.9567;20.1686;9.7504E-6;-1.02E-6;0;Globalstar
12.62270377;6.14E-5;51.9925;142.4554;57.4872;85.6827;4.0079E-6;-1.03E-6;0;Globalstar
12.62270373;6.26E-5;51.9924;139.5672;57.7035;77.7055;-3.9968E-5;-1.11E-6;0;Globalstar
12.62270372;6.44E-5;51.9924;136.4274;57.4119;85.9221;-6.4705E-5;-1.15E-6;0;Globalstar
12.62270371;6.54E-5;51.9924;133.5175;58.0813;109.7348;-6.4153E-5;-1.15E-6;0;Globalstar
12.62270329;6.68E-5;51.9924;131.4075;57.9279;20.2804;-8.4775E-5;-1.19E-6;0;Globalstar
12.62270353;6.76E-5;51.9924;130.3992;57.9969;85.6395;-5.3918E-5;-1.13E-6;0;Globalstar
12.62270337;6.88E-5;51.9925;128.2712;58.2519;22.6221;-4.5793E-5;-1.12E-6;0;Globalstar
12.62270371;6.91E-5;51.9925;127.2581;58.5257;94.921;-1.1726E-5;-1.06E-6;0;Globalstar
12.62270404;6.99E-5;51.9927;124.3658;59.2396;92.6388;3.8988E-5;-9.7E-7;0;Globalstar
12.622704;7.21E-5;51.9928;121.2271;59.6926;98.3917;5.3413E-5;-9.4E-7;0;Globalstar
12.6227042;7.3E-5;51.993;118.3378;60.4101;91.7545;6.3445E-5;-9.2E-7;0;Globalstar
12.622704;7.51E-5;51.9932;116.215;60.955;20.8116;3.5777E-5;-9.7E-7;0;Globalstar
12.62270406;7.54E-5;51.9933;115.2018;61.1921;93.3412;2.9209E-5;-9.9E-7;0;Globalstar
12.62270405;7.57E-5;51.9934;113.0833;61.8348;15.9458;5.1332E-7;-1.04E-6;0;Globalstar
12.62270415;7.64E-5;51.9935;112.3099;62.0224;90.4783;-2.9819E-6;-1.04E-6;0;Globalstar
12.62270416;7.85E-5;51.9937;109.1733;63.0116;92.7751;-4.0384E-5;-1.11E-6;0;Globalstar
12.62270408;7.91E-5;51.9938;107.8051;63.5671;335.2611;-6.3065E-5;-1.15E-6;0;Globalstar
12.62270416;7.88E-5;51.9938;107.0582;63.7293;10.3473;-6.4117E-5;-1.15E-6;0;Globalstar
12.62270401;8.05E-5;51.994;104.1724;64.6031;358.281;-9.8329E-5;-1.21E-6;0;Globalstar
12.62270399;8.12E-5;51.994;103.1456;64.7744;91.2607;-0.00010352;-1.22E-6;0;Globalstar
12.62270387;8.22E-5;51.9942;100.2554;65.6025;85.9058;-0.00010463;-1.23E-6;0;Globalstar
12.62270352;8.43E-5;51.9944;97.1178;66.7247;89.5435;-0.00010175;-1.22E-6;0;Globalstar
12.62270339;8.58E-5;51.9946;94.2276;67.9515;83.8624;-6.9402E-5;-1.16E-6;0;Globalstar
12.62270319;8.63E-5;51.9947;92.6135;68.6954;333.0657;-6.807E-5;-1.16E-6;0;Globalstar
12.62270331;8.66E-5;51.9948;91.8493;68.8605;34.0404;-3.9479E-5;-1.11E-6;0;Globalstar
12.62270345;8.69E-5;51.9949;91.0899;68.9758;87.9104;-2.5782E-5;-1.08E-6;0;Globalstar
12.62270353;8.87E-5;51.9951;88.201;70.0458;80.4674;1.7084E-5;-1.01E-6;0;Globalstar
12.62270355;8.93E-5;51.9952;86.597;70.794;314.8054;2.2134E-5;-1.0E-6;0;Globalstar
12.62270345;9.04E-5;51.9953;85.0626;71.024;85.785;1.9125E-5;-1.0E-6;0;Globalstar
12.62270354;9.09E-5;51.9955;83.461;71.7508;316.5552;1.8481E-5;-1.0E-6;0;Globalstar
12.6227035;9.28E-5;51.9957;80.571;72.9932;310.7853;9.0719E-6;-1.02E-6;0;Globalstar
12.62270351;9.38E-5;51.9957;79.5236;73.3171;74.4217;1.191E-5;-1.02E-6;0;Globalstar
12.62270329;9.5E-5;51.9958;77.6707;74.1927;320.4027;-2.4627E-5;-1.08E-6;0;Globalstar
12.62270378;9.58E-5;51.9959;76.1472;74.7426;74.7839;-4.8915E-7;-1.04E-6;0;Globalstar
12.62270364;9.66E-5;51.996;74.5437;75.5574;308.4157;-2.994E-5;-1.09E-6;0;Globalstar
12.62270387;9.77E-5;51.9961;73.008;75.8264;81.4008;-1.9104E-5;-1.07E-6;0;Globalstar
12.62270393;9.83E-5;51.9961;71.4062;76.647;312.3106;-3.357E-5;-1.1E-6;0;Globalstar
12.62270375;9.92E-5;51.9962;68.5164;77.7143;306.5117;-5.1889E-5;-1.13E-6;0;Globalstar
